{
  "norad_id": 57479,
  "name": "JUPITER 3 (ECHOSTAR 24)",
  "history": [
    {
      "epoch": "2026-03-28T17:56:02.800896",
      "apogee_km": 35791.12798317367,
      "perigee_km": 35782.03726962221,
      "latitude_deg": -0.007894514779474995,
      "longitude_deg": -0.36355456011369824,
      "semi_major_axis_km": 42164.71962639794,
      "eccentricity": 0.0001078,
      "inclination_deg": 0.0117,
      "raan_deg": 201.661,
      "arg_perigee_deg": 164.7363,
      "mean_anomaly_deg": 353.5806,
      "mean_motion_rev_day": 1.00271829
    },
    {
      "epoch": "2026-03-28T17:56:12.775776",
      "apogee_km": 35791.599759036515,
      "perigee_km": 35782.5764008694,
      "latitude_deg": -0.013927804795959552,
      "longitude_deg": -0.35247136023826897,
      "semi_major_axis_km": 42165.22507995296,
      "eccentricity": 0.000107,
      "inclination_deg": 0.0206,
      "raan_deg": 187.0717,
      "arg_perigee_deg": 178.454,
      "mean_anomaly_deg": 354.4755,
      "mean_motion_rev_day": 1.00270026
    }
  ]
}